H-2A R/B                
1 28932U 06002B   26196.92152928  .00005118  00000+0  24416-3 0  9998
2 28932  98.2594 355.3623 0050837 163.5817 196.7076 15.18452560113888
RESURS-DK 1             
1 29228U 06021A   26196.52482071  .00000919  00000+0  57571-4 0  9992
2 29228  69.9307 266.1925 0007128 270.7395  89.2954 15.13319759106863
CZ-4B R/B               
1 29507U 06046C   26196.73162734  .00002512  00000+0  12542-3 0  9992
2 29507  97.5436 241.2512 0032651 180.2561 179.8661 15.17984393 79460
CZ-2C R/B               
1 31114U 07010B   26196.87332133  .00000031  00000+0  33323-4 0  9993
2 31114  98.4120 303.8244 0057765 281.7539  77.7162 14.20281894997919
COSMO-SKYMED 1          
1 31598U 07023A   26196.94052649  .00001398  00000+0  12600-3 0  9993
2 31598  97.8846  29.0397 0001491 103.0882 257.0506 14.97221418 34097
COSMOS 2428             
1 31792U 07029A   26196.53283664  .00000244  00000+0  15641-3 0  9990
2 31792  70.9381 294.9624 0007203  80.5752 279.6183 14.12934606982154
SL-16 R/B               
1 31793U 07029B   26196.53831066  .00000197  00000+0  12663-3 0  9994
2 31793  70.9745 263.6316 0001953 256.3609 203.2418 14.14851875983456
KORONAS-FOTON           
1 33504U 09003A   26196.88082474  .00007914  00000+0  15934-3 0  9997
2 33504  82.4312 142.3153 0012118  60.3216 299.9238 15.46309035965533
CZ-2C R/B               
1 37731U 11030B   26196.88014812  .00000468  00000+0  65325-4 0  9994
2 37731  97.8670 151.7525 0050796 293.8643 124.8401 14.81533069809072
H-2A R/B                
1 38341U 12025E   26196.92178222  .00000521  00000+0  52125-4 0  9992
2 38341  98.4847 174.4421 0042533 252.6414 107.0151 14.95838466767385
SHIJIAN-16 (SJ-16)      
1 39358U 13057A   26196.92648806  .00001181  00000+0  11715-3 0  9999
2 39358  74.9741 302.2489 0015764 162.9733 197.1987 14.92673796690634
SL-4 R/B                
1 39679U 14021B   26196.89884938  .00005349  00000+0  11435-3 0  9990
2 39679  51.6066  70.0544 0089582 211.0723 148.4947 15.42491690676049
ALOS-2                  
1 39766U 14029A   26196.95076909 -.00000009  00000+0  56584-5 0  9998
2 39766  97.9235 293.7030 0001576  91.4209 268.7183 14.79466124655832
YAOGAN-29               
1 41038U 15069A   26196.98645880  .00000526  00000+0  71203-4 0  9998
2 41038  98.0017 225.6631 0000672  15.0271 345.0963 14.83108424574897
ASTRO-H (HITOMI)        
1 41337U 16012A   26196.44764294  .00001273  00000+0  69424-4 0  9993
2 41337  30.9981 251.6570 0009649 177.8511 182.2170 15.10633098571565
HXMT (HUIYAN)           
1 42758U 17034A   26196.94339955  .00002254  00000+0  11690-3 0  9994
2 42758  43.0155  22.8923 0032208 325.4462  34.4293 15.18692514502030
SAOCOM 1A               
1 43641U 18076A   26196.96305181  .00000788  00000+0  10551-3 0  9994
2 43641  97.8880  23.2933 0001483  85.5666 274.5716 14.82150511420369
H-2A R/B                
1 43682U 18084L   26196.61206577  .00013223  00000+0  26930-3 0  9995
2 43682  98.8530  81.7337 0020535 299.0779  60.8408 15.46212820425519
SAOCOM 1B               
1 46265U 20059A   26196.92674000  .00000202  00000+0  31934-4 0  9998
2 46265  97.8883  22.3538 0001508  81.5612 278.5772 14.82158330317743
CSS (TIANHE)            
1 48274U 21035A   26196.53543323  .00001219  00000+0  20014-4 0  9991
2 48274  41.4690 149.7716 0002229 300.3824  59.6794 15.58093729297592
COSMOS 2550             
1 48865U 21056A   26196.91132809  .00002720  00000+0  88471-4 0  9994
2 48865  67.1435  13.0167 0008511 270.2110  89.8069 15.33831878283128
CZ-2C R/B               
1 52794U 22058K   26196.50200512  .00027038  00000+0  28016-3 0  9992
2 52794  50.1855  15.9607 0030134  23.9117 336.3250 15.63873458230079
CZ-2C R/B               
1 54039U 22132E   26196.77390047  .00050123  00000+0  33619-3 0  9997
2 54039  97.2890 205.1497 0009341 339.3600  20.7286 15.75044788210442
GSLV R/B                
1 54149U 22138AN  26196.85510211  .00001336  00000+0  11187-3 0  9999
2 54149  87.3817 123.3579 0023472  50.0408 310.2880 14.97384254203109
XRISM                   
1 57800U 23137A   26196.36830794  .00001997  00000+0  10585-3 0  9997
2 57800  31.0008 177.0225 0007841 248.1772 111.8032 15.12669567157130
ACS3                    
1 59588U 24077B   26196.32599719  .00004361  00000+0  30372-2 0  9994
2 59588  97.1739 108.8789 0125757  36.5333 324.4331 13.95282262111962
SPACEMOBILE-003         
1 61045U 24163A   26196.93628891  .00001075  00000+0  62950-4 0  9990
2 61045  52.9668 177.2357 0004709 195.9997 164.0849 15.20707343102147
SPACEMOBILE-005         
1 61046U 24163B   26196.39395759  .00002259  00000+0  11604-3 0  9999
2 61046  52.9762 179.6783 0008703 196.2999 163.7716 15.20721288102059
SPACEMOBILE-001         
1 61047U 24163C   26196.39230189  .00000276  00000+0  27082-4 0  9990
2 61047  52.9733 179.3964 0007205 194.1158 165.9636 15.20741724102058
SPACEMOBILE-002         
1 61048U 24163D   26196.37616552  .00003670  00000+0  17898-3 0  9995
2 61048  52.9778 179.5102 0006025 192.7695 167.3147 15.20785739102050
